0 THOR ABLESTAR DEB
1 00403U 61015EC  13281.91949155 -.00000031  00000-0  40870-4 0  6500
2 00403 066.8420 232.4522 0019416 171.9358 253.5032 13.80489034631864
0 THOR ABLESTAR DEB
1 00403U 61015EC  13283.08325330 -.00000051  00000-0  21952-4 0  6516
2 00403 066.8421 229.6647 0019318 171.0846 277.1620 13.80489102632025
0 THOR ABLESTAR DEB
1 00403U 61015EC  13284.17283169 -.00000052  00000-0  21055-4 0  6526
2 00403 066.8422 227.0550 0019232 170.2242 292.2091 13.80489303632176
0 THOR ABLESTAR DEB
1 00403U 61015EC  13285.26229927 -.00000042  00000-0  30402-4 0  6535
2 00403 066.8423 224.4455 0019144 169.3993 306.6719 13.80489257632328
0 THOR ABLESTAR DEB
1 00403U 61015EC  13286.26848763 -.00000028  00000-0  44604-4 0  6545
2 00403 066.8424 222.0355 0019056 168.5779 267.3109 13.80489262632464
0 THOR ABLESTAR DEB
1 00403U 61015EC  13288.08449021  .00000018  00000-0  88071-4 0  6556
2 00403 066.8425 217.6861 0018913 167.1774 292.5513 13.80489308632716
0 THOR ABLESTAR DEB
1 00403U 61015EC  13289.09813738  .00000017  00000-0  87194-4 0  6563
2 00403 066.8424 215.2584 0018847 166.3655 290.2443 13.80489331632854
0 THOR ABLESTAR DEB
1 00403U 61015EC  13291.12802545  .00000020  00000-0  89689-4 0  6570
2 00403 066.8421 210.3967 0018694 164.7883 298.4729 13.80489709633135
0 THOR ABLESTAR DEB
1 00403U 61015EC  13292.14300132  .00000021  00000-0  91149-4 0  6584
2 00403 066.8420 207.9657 0018628 163.9492 302.7968 13.80489984633270
0 THOR ABLESTAR DEB
1 00403U 61015EC  13293.15799971  .00000014  00000-0  84570-4 0  6592
2 00403 066.8419 205.5348 0018540 163.1759 307.1674 13.80490421633417
0 THOR ABLESTAR DEB
1 00403U 61015EC  13294.17281111  .00000009  00000-0  79043-4 0  6602
2 00403 066.8418 203.1042 0018474 162.3523 310.6609 13.80490722633553
0 THOR ABLESTAR DEB
1 00403U 61015EC  13295.82853233 -.00000016  00000-0  55141-4 0  6618
2 00403 066.8417 199.1385 0018350 161.0969 259.3129 13.80491173633781
